{
  "norad_id": 65912,
  "name": "STARLINK-35508",
  "history": [
    {
      "epoch": "2026-04-14T20:40:06.015072Z",
      "apogee_km": 476.06123731230764,
      "perigee_km": 474.4013515114011,
      "latitude_deg": -1.7937400157574722e-06,
      "longitude_deg": -155.21459495612788,
      "height_km": 475.7171173059491,
      "semi_major_axis_km": 6853.368294411854,
      "eccentricity": 0.0001211,
      "inclination_deg": 53.1602,
      "raan_deg": 357.842,
      "arg_perigee_deg": 60.1907,
      "mean_anomaly_deg": 299.9214,
      "mean_motion_rev_day": 15.30194566
    },
    {
      "epoch": "2026-04-15T09:12:31.425984Z",
      "apogee_km": 476.0072556700716,
      "perigee_km": 474.40754801979347,
      "latitude_deg": 1.667713944632455e-05,
      "longitude_deg": 13.736725387376534,
      "height_km": 475.6704387822756,
      "semi_major_axis_km": 6853.344401844933,
      "eccentricity": 0.00011671,
      "inclination_deg": 53.1596,
      "raan_deg": 355.4142,
      "arg_perigee_deg": 57.0202,
      "mean_anomaly_deg": 303.0911,
      "mean_motion_rev_day": 15.30202568
    },
    {
      "epoch": "2026-04-16T02:27:06.667200Z",
      "apogee_km": 476.14538249285397,
      "perigee_km": 474.2604398836811,
      "latitude_deg": 4.94795773936965e-05,
      "longitude_deg": 111.04796297161447,
      "height_km": 475.9998547297205,
      "semi_major_axis_km": 6853.339911188267,
      "eccentricity": 0.00013752,
      "inclination_deg": 53.161,
      "raan_deg": 352.0804,
      "arg_perigee_deg": 83.8419,
      "mean_anomaly_deg": 276.2739,
      "mean_motion_rev_day": 15.30204072
    },
    {
      "epoch": "2026-04-17T22:20:36.151008Z",
      "apogee_km": 477.7133322871887,
      "perigee_km": 472.68339533027574,
      "latitude_deg": 7.554507848327265e-06,
      "longitude_deg": 162.37702450218262,
      "height_km": 476.45703815208117,
      "semi_major_axis_km": 6853.335363808732,
      "eccentricity": 0.00036697,
      "inclination_deg": 53.1596,
      "raan_deg": 343.5849,
      "arg_perigee_deg": 98.328,
      "mean_anomaly_deg": 261.8137,
      "mean_motion_rev_day": 15.30205595
    },
    {
      "epoch": "2026-04-18T01:28:42.367872Z",
      "apogee_km": 475.7403640252951,
      "perigee_km": 474.5491265923256,
      "latitude_deg": 1.3641992239597925e-05,
      "longitude_deg": 114.61507316780823,
      "height_km": 476.10358444957745,
      "semi_major_axis_km": 6853.28174530881,
      "eccentricity": 8.691e-05,
      "inclination_deg": 53.1602,
      "raan_deg": 342.9776,
      "arg_perigee_deg": 95.8001,
      "mean_anomaly_deg": 264.3099,
      "mean_motion_rev_day": 15.30223553
    }
  ]
}